[{"OBJECT_NAME":"STARLINK-4489","OBJECT_ID":"2022-101R","EPOCH":"2026-03-09T10:20:27.906720","MEAN_MOTION":15.08827472,"ECCENTRICITY":0.00014214,"INCLINATION":53.2174,"RA_OF_ASC_NODE":65.2842,"ARG_OF_PERICENTER":89.8496,"MEAN_ANOMALY":270.2659,"EPHEMERIS_TYPE":0,"CLASSIFICATION_TYPE":"U","NORAD_CAT_ID":53542,"ELEMENT_SET_NO":999,"REV_AT_EPOCH":19695,"BSTAR":-4.7094544e-5,"MEAN_MOTION_DOT":-1.037e-5,"MEAN_MOTION_DDOT":0},{"OBJECT_NAME":"RAPIDEYE 2","OBJECT_ID":"2008-040A","EPOCH":"2026-03-09T16:28:01.823808","MEAN_MOTION":15.04945954,"ECCENTRICITY":0.00177122,"INCLINATION":97.4373,"RA_OF_ASC_NODE":102.2221,"ARG_OF_PERICENTER":194.2548,"MEAN_ANOMALY":165.8182,"EPHEMERIS_TYPE":0,"CLASSIFICATION_TYPE":"U","NORAD_CAT_ID":33312,"ELEMENT_SET_NO":999,"REV_AT_EPOCH":95100,"BSTAR":0.0001818221,"MEAN_MOTION_DOT":2.525e-5,"MEAN_MOTION_DDOT":0}]
